$$SOE
2459580.500000000, A.D. 2022-Jan-01 00:00:00.0000, -3.891903351349716E+08, 1.636610059301335E+08, -5.973725316467656E+07,
2459587.500000000, A.D. 2022-Jan-08 00:00:00.0000, -3.915225001567202E+08, 1.540711037589415E+08, -5.767609911693211E+07,
2459594.500000000, A.D. 2022-Jan-15 00:00:00.0000, -3.936065660633891E+08, 1.443835677696220E+08, -5.557839055861257E+07,
2459601.500000000, A.D. 2022-Jan-22 00:00:00.0000, -3.954380787183325E+08, 1.346033894769033E+08, -5.344501568875950E+07,
2459608.500000000, A.D. 2022-Jan-29 00:00:00.0000, -3.970125972832353E+08, 1.247357372341263E+08, -5.127690330416941E+07,
2459615.500000000, A.D. 2022-Feb-05 00:00:00.0000, -3.983257008622500E+08, 1.147859621536236E+08, -4.907502441822512E+07,
2459622.500000000, A.D. 2022-Feb-12 00:00:00.0000, -3.993729934544673E+08, 1.047596031156437E+08, -4.684039422825356E+07,
2459629.500000000, A.D. 2022-Feb-19 00:00:00.0000, -4.001501085682064E+08, 9.466239322301260E+07, -4.457407411382629E+07,
2459636.500000000, A.D. 2022-Feb-26 00:00:00.0000, -4.006527148418590E+08, 8.450026696234770E+07, -4.227717360290499E+07,
2459643.500000000, A.D. 2022-Mar-05 00:00:00.0000, -4.008765225490234E+08, 7.427936743663639E+07, -3.995085236922371E+07,
2459650.500000000, A.D. 2022-Mar-12 00:00:00.0000, -4.008172908054846E+08, 6.400605358222892E+07, -3.759632228470375E+07,
2459657.500000000, A.D. 2022-Mar-19 00:00:00.0000, -4.004708354490514E+08, 5.368690737412208E+07, -3.521484952892461E+07,
2459664.500000000, A.D. 2022-Mar-26 00:00:00.0000, -3.998330376137819E+08, 4.332874098654000E+07, -3.280775675528494E+07,
2459671.500000000, A.D. 2022-Apr-02 00:00:00.0000, -3.988998529756501E+08, 3.293860382195995E+07, -3.037642532057275E+07,
2459678.500000000, A.D. 2022-Apr-09 00:00:00.0000, -3.976673214432622E+08, 2.252378937731769E+07, -2.792229759714235E+07,
2459685.500000000, A.D. 2022-Apr-16 00:00:00.0000, -3.961315769830084E+08, 1.209184255974054E+07, -2.544687934034835E+07,
2459692.500000000, A.D. 2022-Apr-23 00:00:00.0000, -3.942888588949164E+08, 1.650568488080952E+06, -2.295174189829857E+07,
2459699.500000000, A.D. 2022-Apr-30 00:00:00.0000, -3.921355264591680E+08, -8.791959519641470E+06, -2.043852426685105E+07,
2459706.500000000, A.D. 2022-May-07 00:00:00.0000, -3.896680739421083E+08, -1.922739480596377E+07, -1.790893542147174E+07,
2459713.500000000, A.D. 2022-May-14 00:00:00.0000, -3.868831446192073E+08, -2.964711210770243E+07, -1.536475679170124E+07,
2459720.500000000, A.D. 2022-May-21 00:00:00.0000, -3.837775458881999E+08, -4.004220148061600E+07, -1.280784461425742E+07,
2459727.500000000, A.D. 2022-May-28 00:00:00.0000, -3.803482659944280E+08, -5.040346246046752E+07, -1.024013218234268E+07,
2459734.500000000, A.D. 2022-Jun-04 00:00:00.0000, -3.765924921344203E+08, -6.072139886795366E+07, -7.663632023335896E+06,
2459741.500000000, A.D. 2022-Jun-11 00:00:00.0000, -3.725076298316602E+08, -7.098621435827492E+07, -5.080437996354733E+06,
2459748.500000000, A.D. 2022-Jun-18 00:00:00.0000, -3.680913235783275E+08, -8.118780881527808E+07, -2.492727287713945E+06,
2459755.500000000, A.D. 2022-Jun-25 00:00:00.0000, -3.633414787395459E+08, -9.131577574757972E+07, 9.723771751888096E+04,
2459762.500000000, A.D. 2022-Jul-02 00:00:00.0000, -3.582562846044949E+08, -1.013594008877202E+08, 2.687107700318702E+06,
2459769.500000000, A.D. 2022-Jul-09 00:00:00.0000, -3.528342382030814E+08, -1.113076619637038E+08, 5.274444820733897E+06,
2459776.500000000, A.D. 2022-Jul-16 00:00:00.0000, -3.470741689403843E+08, -1.211492287174885E+08, 7.856721409145251E+06,
2459783.500000000, A.D. 2022-Jul-23 00:00:00.0000, -3.409752662303326E+08, -1.308724632619099E+08, 1.043131918334905E+07,
2459790.500000000, A.D. 2022-Jul-30 00:00:00.0000, -3.345371100143201E+08, -1.404654243117096E+08, 1.299552875243818E+07,
2459797.500000000, A.D. 2022-Aug-06 00:00:00.0000, -3.277597005207677E+08, -1.499158748314716E+08, 1.554654917686845E+07,
2459804.500000000, A.D. 2022-Aug-13 00:00:00.0000, -3.206434880203138E+08, -1.592112905427603E+08, 1.808148793561561E+07,
2459811.500000000, A.D. 2022-Aug-20 00:00:00.0000, -3.131894040499886E+08, -1.683388699983877E+08, 2.059736145629302E+07,
2459818.500000000, A.D. 2022-Aug-27 00:00:00.0000, -3.053988939166284E+08, -1.772855471641595E+08, 2.309109619787301E+07,
2459825.500000000, A.D. 2022-Sep-03 00:00:00.0000, -2.972739500846655E+08, -1.860380068377086E+08, 2.555953031203209E+07,
2459832.500000000, A.D. 2022-Sep-10 00:00:00.0000, -2.888171461811762E+08, -1.945827030992200E+08, 2.799941593705034E+07,
2459839.500000000, A.D. 2022-Sep-17 00:00:00.0000, -2.800316713764735E+08, -2.029058810109260E+08, 3.040742218315282E+07,
2459846.500000000, A.D. 2022-Sep-24 00:00:00.0000, -2.709213648298328E+08, -2.109936018251178E+08, 3.278013886178932E+07,
2459853.500000000, A.D. 2022-Oct-01 00:00:00.0000, -2.614907496715477E+08, -2.188317719213186E+08, 3.511408099679837E+07,
2459860.500000000, A.D. 2022-Oct-08 00:00:00.0000, -2.517450657851504E+08, -2.264061751326297E+08, 3.740569418316420E+07,
2459867.500000000, A.D. 2022-Oct-15 00:00:00.0000, -2.416903019512646E+08, -2.337025074210687E+08, 3.965136103451274E+07,
2459874.500000000, A.D. 2022-Oct-22 00:00:00.0000, -2.313332291225626E+08, -2.407064157155238E+08, 4.184740883524075E+07,
2459881.500000000, A.D. 2022-Oct-29 00:00:00.0000, -2.206814318816743E+08, -2.474035435998551E+08, 4.399011800425427E+07,
2459888.500000000, A.D. 2022-Nov-05 00:00:00.0000, -2.097433354953907E+08, -2.537795811558145E+08, 4.607573144227543E+07,
2459895.500000000, A.D. 2022-Nov-12 00:00:00.0000, -1.985282300018633E+08, -2.598203176794291E+08, 4.810046507505253E+07,
2459902.500000000, A.D. 2022-Nov-19 00:00:00.0000, -1.870462914827456E+08, -2.655116981484926E+08, 5.006051959359097E+07,
2459909.500000000, A.D. 2022-Nov-26 00:00:00.0000, -1.753085996617864E+08, -2.708398837010484E+08, 5.195209333227251E+07,
2459916.500000000, A.D. 2022-Dec-03 00:00:00.0000, -1.633271510559383E+08, -2.757913159339308E+08, 5.377139625230955E+07,
2459923.500000000, A.D. 2022-Dec-10 00:00:00.0000, -1.511148670292826E+08, -2.803527847209005E+08, 5.551466499749522E+07,
2459930.500000000, A.D. 2022-Dec-17 00:00:00.0000, -1.386855961318693E+08, -2.845114991987433E+08, 5.717817896887942E+07,
2459937.500000000, A.D. 2022-Dec-24 00:00:00.0000, -1.260541100380002E+08, -2.882551615098431E+08, 5.875827733014812E+07,
2459944.500000000, A.D. 2022-Dec-31 00:00:00.0000, -1.132360921800929E+08, -2.915720426175814E+08, 6.025137682102177E+07,
2459951.500000000, A.D. 2023-Jan-07 00:00:00.0000, -1.002481184571580E+08, -2.944510585603235E+08, 6.165399032140077E+07,
2459958.500000000, A.D. 2023-Jan-14 00:00:00.0000, -8.710763155331783E+07, -2.968818458824638E+08, 6.296274623656610E+07,
2459965.500000000, A.D. 2023-Jan-21 00:00:00.0000, -7.383290916396590E+07, -2.988548385651267E+08, 6.417440832731939E+07,
2459972.500000000, A.D. 2023-Jan-28 00:00:00.0000, -6.044302221889246E+07, -3.003613457300143E+08, 6.528589543464436E+07,
2459979.500000000, A.D. 2023-Feb-04 00:00:00.0000, -4.695778319149495E+07, -3.013936261048491E+08, 6.629430114755852E+07,
2459986.500000000, A.D. 2023-Feb-11 00:00:00.0000, -3.339768630625084E+07, -3.019449584110365E+08, 6.719691332638752E+07,
2459993.500000000, A.D. 2023-Feb-18 00:00:00.0000, -1.978383987291351E+07, -3.020097074354223E+08, 6.799123316820568E+07,
2460000.500000000, A.D. 2023-Feb-25 00:00:00.0000, -6.137890807738896E+06, -3.015833848816236E+08, 6.867499351465529E+07,
2460007.500000000, A.D. 2023-Mar-04 00:00:00.0000, 7.518058275287428E+06, -3.006627039360944E+08, 6.924617612625876E+07,
2460014.500000000, A.D. 2023-Mar-11 00:00:00.0000, 2.116153878509668E+07, -2.992456265515882E+08, 6.970302765435377E+07,
2460021.500000000, A.D. 2023-Mar-18 00:00:00.0000, 3.476981192764715E+07, -2.973314025791256E+08, 7.004407404614718E+07,
2460028.500000000, A.D. 2023-Mar-25 00:00:00.0000, 4.831996978030942E+07, -2.949205999814295E+08, 7.026813312065852E+07,
2460035.500000000, A.D. 2023-Apr-01 00:00:00.0000, 6.178904099933384E+07, -2.920151250478599E+08, 7.037432509041896E+07,
2460042.500000000, A.D. 2023-Apr-08 00:00:00.0000, 7.515409933972298E+07, -2.886182308494036E+08, 7.036208099420393E+07,
2460049.500000000, A.D. 2023-Apr-15 00:00:00.0000, 8.839237135733943E+07, -2.847345146715050E+08, 7.023114900585099E+07,
2460056.500000000, A.D. 2023-Apr-22 00:00:00.0000, 1.014813437525711E+08, -2.803699072921174E+08, 6.998159808309174E+07,
2460063.500000000, A.D. 2023-Apr-29 00:00:00.0000, 1.143988717158077E+08, -2.755316518655608E+08, 6.961381881389475E+07,
2460070.500000000, A.D. 2023-May-06 00:00:00.0000, 1.271232851451092E+08, -2.702282708440650E+08, 6.912852173843865E+07,
2460077.500000000, A.D. 2023-May-13 00:00:00.0000, 1.396334904292896E+08, -2.644695222359941E+08, 6.852673318035559E+07,
2460084.500000000, A.D. 2023-May-20 00:00:00.0000, 1.519090667740720E+08, -2.582663462806609E+08, 6.780978858857131E+07,
2460091.500000000, A.D. 2023-May-27 00:00:00.0000, 1.639303561120690E+08, -2.516308033270136E+08, 6.697932347708795E+07,
2460098.500000000, A.D. 2023-Jun-03 00:00:00.0000, 1.756785456311044E+08, -2.445760037963372E+08, 6.603726210807167E+07,
2460105.500000000, A.D. 2023-Jun-10 00:00:00.0000, 1.871357420731434E+08, -2.371160312707811E+08, 6.498580409918186E+07,
2460112.500000000, A.D. 2023-Jun-17 00:00:00.0000, 1.982850371917984E+08, -2.292658598886472E+08, 6.382740915705682E+07,
2460119.500000000, A.D. 2023-Jun-24 00:00:00.0000, 2.091105641711146E+08, -2.210412671772590E+08, 6.256478015448540E+07,
2460126.500000000, A.D. 2023-Jul-01 00:00:00.0000, 2.195975449278613E+08, -2.124587427206725E+08, 6.120084485951577E+07,
2460133.500000000, A.D. 2023-Jul-08 00:00:00.0000, 2.297323264732073E+08, -2.035353930719995E+08, 5.973873681192390E+07,
2460140.500000000, A.D. 2023-Jul-15 00:00:00.0000, 2.395024050805401E+08, -1.942888469431033E+08, 5.818177550871786E+07,
$$EOE